QIANFAN-1               
1 60379U 24140A   25196.85916833  .00000100  00000+0  13585-3 0  9997
2 60379  88.9842 314.7586 0015472 288.9910  70.9564 13.50951208 47114
QIANFAN-2               
1 60380U 24140B   25196.88802694  .00000116  00000+0  16200-3 0  9995
2 60380  88.9828 314.6158 0010915 256.3370 103.6566 13.50957670 47171
QIANFAN-3               
1 60381U 24140C   25196.89617457  .00000115  00000+0  15903-3 0  9996
2 60381  88.9821 314.7585 0011896 271.2849  88.6939 13.50955760 47080
QIANFAN-4               
1 60382U 24140D   25196.87151449  .00000122  00000+0  17086-3 0  9991
2 60382  88.9846 314.6213 0011107 259.5117 100.4783 13.50951230 47209
QIANFAN-5               
1 60383U 24140E   25196.84691146  .00000111  00000+0  15335-3 0  9995
2 60383  88.9821 314.7895 0013134 284.6688  75.3007 13.50954337 47068
QIANFAN-6               
1 60384U 24140F   25196.86735786  .00000115  00000+0  15969-3 0  9994
2 60384  88.9847 314.4937 0011157 266.5757  93.4118 13.50955765 47262
QIANFAN-7               
1 60385U 24140G   25196.88263688  .00000446  00000+0  17573-3 0  9994
2 60385  88.9850 311.2956 0015926 165.3289 194.8370 14.27476505 49013
QIANFAN-8               
1 60386U 24140H   25196.80164412  .00000122  00000+0  17040-3 0  9992
2 60386  88.9849 314.7353 0014588 269.8966  90.0514 13.50954940 47100
